JINJUSAT-1B             
1 63210U 25052A   26068.66363707  .00019955  00000+0  68430-3 0  9998
2 63210  97.4113 325.4613 0005550  82.1930 277.9941 15.30194857 54866
STARLINK-34367          
1 64452U 25130Q   26068.48056697  .00021727  00000+0  74365-3 0  9995
2 64452  53.1590  89.3241 0001295  77.8975 282.2171 15.30196054 40666
